STARLINK-32782          
1 62821U 25018R   26191.18766293  .00016129  00000+0  48735-3 0  9994
2 62821  53.1594  99.8808 0000867 168.2741 191.8282 15.34407748 81946
STARLINK-32842          
1 62822U 25018S   26189.90800200  .00019505  00000+0  58664-3 0  9992
2 62822  53.1564 105.4000 0001815 117.4984 242.6203 15.34414680 81751
STARLINK-32852          
1 62824U 25018U   26191.13192291  .00017529  00000+0  60246-3 0  9999
2 62824  53.1586 100.9506 0001323  60.6950 299.4183 15.30205822 81922
STARLINK-32825          
1 62825U 25018V   26191.27773607  .00020117  00000+0  68931-3 0  9997
2 62825  53.1576  97.5906 0001574 118.6484 241.4675 15.30208602 81978
STARLINK-32704          
1 62826U 25018W   26191.11511444  .00075695  00000+0  16075-2 0  9992
2 62826  53.1496  96.5813 0005299  91.6734 268.4880 15.44362065 81978
STARLINK-32727          
1 62828U 25018Y   26191.31947391  .00006614  00000+0  20675-3 0  9997
2 62828  53.1593  95.0193 0001232 116.5153 243.5976 15.34392559 82968
STARLINK-11548 [DTC]    
1 62829U 25019A   26191.27577252  .00134609  00000+0  10343-2 0  9995
2 62829  43.0001 286.7822 0001629 279.7105  80.3579 15.70870265 83162
STARLINK-11480 [DTC]    
1 62830U 25019B   26191.29700959  .00139003  00000+0  10652-2 0  9997
2 62830  42.9971 286.9509 0001208 205.5444 154.5364 15.70919480 83167
STARLINK-11559 [DTC]    
1 62831U 25019C   26191.26528173  .00123969  00000+0  95410-3 0  9991
2 62831  43.0013 287.5888 0002509 240.9031 119.1586 15.70867659 83156
STARLINK-11549 [DTC]    
1 62832U 25019D   26191.31293743  .00254721  00000+0  19184-2 0  9994
2 62832  42.9990 287.0788 0002716 224.6530 135.4119 15.70962941 83160
STARLINK-11554 [DTC]    
1 62833U 25019E   26191.31825008  .00199008  00000+0  15117-2 0  9998
2 62833  43.0001 287.1248 0002136 263.4656  96.5969 15.70931092 83167
STARLINK-11520 [DTC]    
1 62834U 25019F   26190.70883680  .00126653  00000+0  97638-3 0  9996
2 62834  42.9990 290.2723 0001714 299.0023  61.0673 15.70819700 83081
STARLINK-11546 [DTC]    
1 62835U 25019G   26191.27058961  .00128712  00000+0  98975-3 0  9999
2 62835  43.0005 287.6296 0002229 235.1655 124.9003 15.70872025 83153
STARLINK-11533 [DTC]    
1 62836U 25019H   26191.30232192  .00210987  00000+0  15953-2 0  9994
2 62836  42.9986 286.9911 0002085 257.7612 102.3022 15.71003873 83169
STARLINK-11557 [DTC]    
1 62837U 25019J   26191.28639114  .00161950  00000+0  12346-2 0  9995
2 62837  42.9991 286.8650 0001789 269.5385  90.5278 15.70967000 83164
STARLINK-11556 [DTC]    
1 62838U 25019K   26191.15482828  .00229231  00000+0  17354-2 0  9991
2 62838  42.9989 287.5918 0001537 255.6216 104.4481 15.70918720 83141
STARLINK-11524 [DTC]    
1 62839U 25019L   26191.32355835  .00140529  00000+0  10794-2 0  9991
2 62839  42.9993 287.1636 0001661 285.7389  74.3296 15.70858299 83168
STARLINK-11551 [DTC]    
1 62840U 25019M   26191.29170315  .00129561  00000+0  99359-3 0  9995
2 62840  42.9998 286.9047 0001737 291.6124  68.4558 15.70934074 83166
STARLINK-11531 [DTC]    
1 62841U 25019N   26190.35387856  .00088535  00000+0  68633-3 0  9998
2 62841  42.9992 292.7818 0001448 261.0459  99.0244 15.70833319 83019
STARLINK-32755          
1 62842U 25019P   26191.16699484  .00003367  00000+0  13188-3 0  9997
2 62842  43.0030 110.2516 0002313 253.2078 106.8520 15.27571621 81060
STARLINK-32797          
1 62843U 25019Q   26191.17116542  .00011857  00000+0  43956-3 0  9997
2 62843  43.0023 117.2102 0001404 277.8645  82.2047 15.27591659 80987
STARLINK-32794          
1 62844U 25019R   26189.95450940  .00021044  00000+0  77106-3 0  9997
2 62844  42.9979 124.4156 0000991 291.2261  68.8485 15.27622874 80798
STARLINK-32807          
1 62845U 25019S   26191.13745067  .00018969  00000+0  69685-3 0  9993
2 62845  42.9904 110.0235 0001048  60.6254 299.4702 15.27590063 81069
STARLINK-32804          
1 62846U 25019T   26191.17887459  .00011463  00000+0  42530-3 0  9992
2 62846  42.9999 117.2691 0000200   9.5409 350.5446 15.27590717 80982
STARLINK-32799          
1 62847U 25019U   26191.22883310  .00007850  00000+0  29423-3 0  9992
2 62847  43.0015 116.7750 0002156 261.3531  98.7076 15.27608119 80997
STARLINK-32781          
1 62848U 25019V   26191.17759038  .00014322  00000+0  52869-3 0  9998
2 62848  43.0002 117.2586 0001674 246.8529 113.2146 15.27597353 80983
STARLINK-32809          
1 62849U 25019W   26191.15320498  .00013045  00000+0  48250-3 0  9991
2 62849  42.9970 117.0643 0006113  45.6746 314.4606 15.27583346 80980
STARLINK-32868          
1 62854U 25022A   26191.26411427  .00003074  00000+0  10216-3 0  9998
2 62854  53.1570 277.6624 0001196  91.9159 268.1980 15.34375102 81513
STARLINK-32867          
1 62855U 25022B   26190.51661921  .00004720  00000+0  15069-3 0  9992
2 62855  53.1603 282.9324 0001056  60.4786 299.6322 15.34411222 80566
STARLINK-32860          
1 62856U 25022C   26191.27089943  .00011111  00000+0  33959-3 0  9995
2 62856  53.1578 279.1206 0001392  99.3055 260.8105 15.34389450 80687
