OBJECT_NAME,OBJECT_ID,EPOCH,MEAN_MOTION,ECCENTRICITY,INCLINATION,RA_OF_ASC_NODE,ARG_OF_PERICENTER,MEAN_ANOMALY,EPHEMERIS_TYPE,CLASSIFICATION_TYPE,NORAD_CAT_ID,ELEMENT_SET_NO,REV_AT_EPOCH,BSTAR,MEAN_MOTION_DOT,MEAN_MOTION_DDOT
STARLINK-32782,2025-018R,2026-07-10T04:30:14.077152,15.34407748,.00008679,53.1594,99.8808,168.2741,191.8282,0,U,62821,999,8194,.48734608E-3,.16129E-3,0
STARLINK-32842,2025-018S,2026-07-08T21:47:31.372800,15.34414680,.0001815,53.1564,105.4000,117.4984,242.6203,0,U,62822,999,8175,.58663775E-3,.19505E-3,0
STARLINK-32852,2025-018U,2026-07-10T03:09:58.139424,15.30205822,.00013233,53.1586,100.9506,60.6950,299.4183,0,U,62824,999,8192,.60246196E-3,.17529E-3,0
STARLINK-32825,2025-018V,2026-07-10T06:39:56.396448,15.30208602,.0001574,53.1576,97.5906,118.6484,241.4675,0,U,62825,999,8197,.68931167E-3,.20117E-3,0
STARLINK-32704,2025-018W,2026-07-10T02:45:45.887616,15.44362065,.00052991,53.1496,96.5813,91.6734,268.4880,0,U,62826,999,8197,.16075304E-2,.75695E-3,0
STARLINK-32727,2025-018Y,2026-07-10T07:40:02.545824,15.34392559,.00012321,53.1593,95.0193,116.5153,243.5976,0,U,62828,999,8296,.20675088E-3,.6614E-4,0
STARLINK-11548 [DTC],2025-019A,2026-07-10T06:37:06.745728,15.70870265,.00016297,43.0001,286.7822,279.7105,80.3579,0,U,62829,999,8316,.10343089E-2,.134609E-2,0
STARLINK-11480 [DTC],2025-019B,2026-07-10T07:07:41.628576,15.70919480,.00012085,42.9971,286.9509,205.5444,154.5364,0,U,62830,999,8316,.10652034E-2,.139003E-2,0
STARLINK-11559 [DTC],2025-019C,2026-07-10T06:22:00.341472,15.70867659,.00025096,43.0013,287.5888,240.9031,119.1586,0,U,62831,999,8315,.95409667E-3,.123969E-2,0
STARLINK-11549 [DTC],2025-019D,2026-07-10T07:30:37.793952,15.70962941,.00027162,42.9990,287.0788,224.6530,135.4119,0,U,62832,999,8316,.19183668E-2,.254721E-2,0
STARLINK-11554 [DTC],2025-019E,2026-07-10T07:38:16.806912,15.70931092,.00021361,43.0001,287.1248,263.4656,96.5969,0,U,62833,999,8316,.15117431E-2,.199008E-2,0
STARLINK-11520 [DTC],2025-019F,2026-07-09T17:00:43.499520,15.70819700,.00017147,42.9990,290.2723,299.0023,61.0673,0,U,62834,999,8308,.97638083E-3,.126653E-2,0
STARLINK-11546 [DTC],2025-019G,2026-07-10T06:29:38.942304,15.70872025,.00022296,43.0005,287.6296,235.1655,124.9003,0,U,62835,999,8315,.98974648E-3,.128712E-2,0
STARLINK-11533 [DTC],2025-019H,2026-07-10T07:15:20.613888,15.71003873,.00020854,42.9986,286.9911,257.7612,102.3022,0,U,62836,999,8316,.15953362E-2,.210987E-2,0
STARLINK-11557 [DTC],2025-019J,2026-07-10T06:52:24.194496,15.70967000,.0001789,42.9991,286.8650,269.5385,90.5278,0,U,62837,999,8316,.12345583E-2,.16195E-2,0
STARLINK-11556 [DTC],2025-019K,2026-07-10T03:42:57.163392,15.70918720,.00015377,42.9989,287.5918,255.6216,104.4481,0,U,62838,999,8314,.17353789E-2,.229231E-2,0
STARLINK-11524 [DTC],2025-019L,2026-07-10T07:45:55.441440,15.70858299,.00016611,42.9993,287.1636,285.7389,74.3296,0,U,62839,999,8316,.10794122E-2,.140529E-2,0
STARLINK-11551 [DTC],2025-019M,2026-07-10T07:00:03.152160,15.70934074,.00017377,42.9998,286.9047,291.6124,68.4558,0,U,62840,999,8316,.99359139E-3,.129561E-2,0
STARLINK-11531 [DTC],2025-019N,2026-07-09T08:29:35.107584,15.70833319,.00014489,42.9992,292.7818,261.0459,99.0244,0,U,62841,999,8301,.68632917E-3,.88535E-3,0
STARLINK-32755,2025-019P,2026-07-10T04:00:28.354176,15.27571621,.0002313,43.0030,110.2516,253.2078,106.8520,0,U,62842,999,8106,.13187708E-3,.3367E-4,0
STARLINK-32797,2025-019Q,2026-07-10T04:06:28.692288,15.27591659,.0001404,43.0023,117.2102,277.8645,82.2047,0,U,62843,999,8098,.43956193E-3,.11857E-3,0
STARLINK-32794,2025-019R,2026-07-08T22:54:29.612160,15.27622874,.0000991,42.9979,124.4156,291.2261,68.8485,0,U,62844,999,8079,.77105654E-3,.21044E-3,0
STARLINK-32807,2025-019S,2026-07-10T03:17:55.737888,15.27590063,.00010484,42.9904,110.0235,60.6254,299.4702,0,U,62845,999,8106,.69685067E-3,.18969E-3,0
STARLINK-32804,2025-019T,2026-07-10T04:17:34.764576,15.27590717,.00002008,42.9999,117.2691,9.5409,350.5446,0,U,62846,999,8098,.4253001E-3,.11463E-3,0
STARLINK-32799,2025-019U,2026-07-10T05:29:31.179840,15.27608119,.00021565,43.0015,116.7750,261.3531,98.7076,0,U,62847,999,8099,.29423E-3,.785E-4,0
STARLINK-32781,2025-019V,2026-07-10T04:15:43.808832,15.27597353,.00016742,43.0002,117.2586,246.8529,113.2146,0,U,62848,999,8098,.52868743E-3,.14322E-3,0
STARLINK-32809,2025-019W,2026-07-10T03:40:36.910272,15.27583346,.00061139,42.9970,117.0643,45.6746,314.4606,0,U,62849,999,8098,.48250263E-3,.13045E-3,0
STARLINK-32868,2025-022A,2026-07-10T06:20:19.472928,15.34375102,.00011961,53.1570,277.6624,91.9159,268.1980,0,U,62854,999,8151,.10216039E-3,.3074E-4,0
STARLINK-32867,2025-022B,2026-07-09T12:23:55.899744,15.34411222,.00010561,53.1603,282.9324,60.4786,299.6322,0,U,62855,999,8056,.15068937E-3,.472E-4,0
STARLINK-32860,2025-022C,2026-07-10T06:30:05.710752,15.34389450,.00013923,53.1578,279.1206,99.3055,260.8105,0,U,62856,999,8068,.3395933E-3,.11111E-3,0
